{
  "type": "FeatureCollection",
  "name": "roads",
  "crs": { "type": "name", "properties": { "name": "urn:ogc:def:crs:EPSG::4326" } },
  "features": [
    {
      "type": "Feature",
      "geometry": {
        "type": "LineString",
        "coordinates": [
          [116.3478, 39.939],
          [116.3478, 39.99]
        ]
      },
      "properties": {
        "id": "RD-001",
        "layer": "ROAD_CENTERLINE",
        "road_class": "arterial",
        "name_zh": "京张智脉主轴-南段",
        "source_type": "agent_design_model",
        "confidence": "low",
        "geometry_role": "design_model",
        "length_m": 5680
      }
    },
    {
      "type": "Feature",
      "geometry": {
        "type": "LineString",
        "coordinates": [
          [116.3478, 39.99],
          [116.3478, 40.0265]
        ]
      },
      "properties": {
        "id": "RD-002",
        "layer": "ROAD_CENTERLINE",
        "road_class": "arterial",
        "name_zh": "京张智脉主轴-北段",
        "source_type": "agent_design_model",
        "confidence": "low",
        "geometry_role": "design_model",
        "length_m": 4070
      }
    },
    {
      "type": "Feature",
      "geometry": {
        "type": "LineString",
        "coordinates": [
          [116.342, 39.947],
          [116.355, 39.947]
        ]
      },
      "properties": {
        "id": "RD-003",
        "layer": "ROAD_CENTERLINE",
        "road_class": "secondary",
        "name_zh": "大钟寺东西联络线",
        "source_type": "agent_design_model",
        "confidence": "low",
        "geometry_role": "design_model",
        "length_m": 1110
      }
    },
    {
      "type": "Feature",
      "geometry": {
        "type": "LineString",
        "coordinates": [
          [116.342, 39.988],
          [116.354, 39.988]
        ]
      },
      "properties": {
        "id": "RD-004",
        "layer": "ROAD_CENTERLINE",
        "road_class": "secondary",
        "name_zh": "AI原点东西联络线",
        "source_type": "agent_design_model",
        "confidence": "low",
        "geometry_role": "design_model",
        "length_m": 1020
      }
    },
    {
      "type": "Feature",
      "geometry": {
        "type": "LineString",
        "coordinates": [
          [116.343, 40.015],
          [116.354, 40.015]
        ]
      },
      "properties": {
        "id": "RD-005",
        "layer": "ROAD_CENTERLINE",
        "road_class": "secondary",
        "name_zh": "众智园东西联络线",
        "source_type": "agent_design_model",
        "confidence": "low",
        "geometry_role": "design_model",
        "length_m": 940
      }
    },
    {
      "type": "Feature",
      "geometry": {
        "type": "LineString",
        "coordinates": [
          [116.344, 39.985],
          [116.352, 39.985],
          [116.352, 39.992],
          [116.344, 39.992],
          [116.344, 39.985]
        ]
      },
      "properties": {
        "id": "RD-006",
        "layer": "ROAD_CENTERLINE",
        "road_class": "service",
        "name_zh": "原点社区服务环线",
        "source_type": "agent_design_model",
        "confidence": "low",
        "geometry_role": "design_model",
        "length_m": 2230
      }
    },
    {
      "type": "Feature",
      "geometry": {
        "type": "LineString",
        "coordinates": [
          [116.3465, 39.939],
          [116.3465, 39.9835]
        ]
      },
      "properties": {
        "id": "RD-007",
        "layer": "ROAD_CENTERLINE",
        "road_class": "slow_mobility",
        "name_zh": "智脉慢行绿道-南段",
        "source_type": "agent_design_model",
        "confidence": "low",
        "geometry_role": "design_model",
        "length_m": 4960
      }
    },
    {
      "type": "Feature",
      "geometry": {
        "type": "LineString",
        "coordinates": [
          [116.3465, 40.006],
          [116.3465, 40.0265]
        ]
      },
      "properties": {
        "id": "RD-008",
        "layer": "ROAD_CENTERLINE",
        "road_class": "slow_mobility",
        "name_zh": "智脉慢行绿道-北段",
        "source_type": "agent_design_model",
        "confidence": "low",
        "geometry_role": "design_model",
        "length_m": 2280
      }
    },
    {
      "type": "Feature",
      "geometry": {
        "type": "LineString",
        "coordinates": [
          [116.344, 40.01],
          [116.353, 40.01],
          [116.353, 40.024],
          [116.344, 40.024],
          [116.344, 40.01]
        ]
      },
      "properties": {
        "id": "RD-009",
        "layer": "ROAD_CENTERLINE",
        "road_class": "slow_mobility",
        "name_zh": "众智园慢行环",
        "source_type": "agent_design_model",
        "confidence": "low",
        "geometry_role": "design_model",
        "length_m": 3050
      }
    },
    {
      "type": "Feature",
      "geometry": {
        "type": "LineString",
        "coordinates": [
          [116.3545, 39.965],
          [116.3553, 40.0265]
        ]
      },
      "properties": {
        "id": "RD-010",
        "layer": "ROAD_CENTERLINE",
        "road_class": "arterial",
        "name_zh": "东侧干道南北贯通线",
        "source_type": "agent_design_model",
        "confidence": "low",
        "geometry_role": "design_model",
        "length_m": 6830
      }
    }
  ]
}
